{"id":"199","name":"Mercury","centerId":"10","centerName":"Sun ","epoch":"2000-Jan-01 12:00:00.0000","ephemerisTable":{"eccentricity":0.2056302933705567,"periapsis":46001209592.307884,"inclination":7.005014303275355,"longitudeOfAscendingNode":48.33053855197922,"argumentOfPeriapsis":29.12428165737838,"timeOfPeriapsis":2451502.287121773,"meanMotion":0.00004736511751745466,"meanAnomaly":174.7958829169579,"trueAnomaly":176.4950862746721,"semiMajorAxis":57909068294.527084,"apoapsis":69816926996.74629,"siderealOrbitPeriod":7600530.070833991,"semiMinorAxis":56671536875.82669,"semiLatusRectum":55460451816.174614,"linearEccentricity":11907858702.21921,"initialPosition":[-69652614044.35896,4266132208.575184,0],"initialVelocity":[-2990.5289060435343,-38767.07779143646,0]},"physicalDataTable":{"meanRadius":2440000,"mass":3.302e+23,"siderealRotRate":0.00000124001,"gravParameter":22031868.55,"obliquity":2.11,"siderealRotationPeriod":5067044.061886264}}
